start=new Date('2022-04-06T00:00:00.000Z').valueOf();
sats=[{"MEAN_MOTION_DDOT":"0.0000000000000","TLE_LINE2":"2 45094  53.0536 203.6883 0001451  65.3760 294.7380 15.06418131120909","TLE_LINE1":"1 45094U 20006BC  22095.78058253  .00009514  00000-0  65639-3 0  9997","INCLINATION":"53.0536","RA_OF_ASC_NODE":"203.6883","EPOCH":"2022-04-05T18:44:02.330592","PERIAPSIS":"546.153","LAUNCH_DATE":"2020-01-29","NORAD_CAT_ID":"45094","OBJECT_TYPE":"PAYLOAD","MEAN_ELEMENT_THEORY":"SGP4","FILE":"3389912","COUNTRY_CODE":"US","APOAPSIS":"548.163","MEAN_MOTION":"15.06418131","GP_ID":"200542472","REF_FRAME":"TEME","PERIOD":"95.591","MEAN_ANOMALY":"294.7380","ARG_OF_PERICENTER":"65.3760","ECCENTRICITY":"0.00014510","OBJECT_ID":"2020-006BC","SITE":"AFETR","SEMIMAJOR_AXIS":"6925.293","OBJECT_NAME":"STARLINK-1146","DECAY_DATE":null,"MEAN_MOTION_DOT":"0.00009514","RCS_SIZE":"LARGE","TIME_SYSTEM":"UTC","CLASSIFICATION_TYPE":"U","EPHEMERIS_TYPE":"0","REV_AT_EPOCH":"12090","BSTAR":"0.00065639000000","CENTER_NAME":"EARTH","ELEMENT_SET_NO":"999"},{"OBJECT_NAME":"STARLINK-1147","DECAY_DATE":null,"OBJECT_ID":"2020-006BD","SEMIMAJOR_AXIS":"6925.322","SITE":"AFETR","ECCENTRICITY":"0.00015190","PERIOD":"95.592","MEAN_ANOMALY":"308.3537","ARG_OF_PERICENTER":"51.7588","REF_FRAME":"TEME","GP_ID":"200540721","MEAN_MOTION":"15.06408513","CENTER_NAME":"EARTH","ELEMENT_SET_NO":"999","BSTAR":"0.00039557000000","CLASSIFICATION_TYPE":"U","REV_AT_EPOCH":"12090","EPHEMERIS_TYPE":"0","RCS_SIZE":"LARGE","TIME_SYSTEM":"UTC","MEAN_MOTION_DOT":"0.00005617","EPOCH":"2022-04-05T18:49:20.074368","RA_OF_ASC_NODE":"203.6762","INCLINATION":"53.0516","TLE_LINE1":"1 45095U 20006BD  22095.78426012  .00005617  00000-0  39557-3 0  9990","TLE_LINE2":"2 45095  53.0516 203.6762 0001519  51.7588 308.3537 15.06408513120905","MEAN_MOTION_DDOT":"0.0000000000000","APOAPSIS":"548.239","COUNTRY_CODE":"US","MEAN_ELEMENT_THEORY":"SGP4","FILE":"3389912","OBJECT_TYPE":"PAYLOAD","NORAD_CAT_ID":"45095","LAUNCH_DATE":"2020-01-29","PERIAPSIS":"546.136"},{"ECCENTRICITY":"0.00017780","OBJECT_ID":"2020-006BE","SITE":"AFETR","SEMIMAJOR_AXIS":"6925.279","OBJECT_NAME":"STARLINK-1152","DECAY_DATE":null,"MEAN_MOTION":"15.06422560","GP_ID":"200540971","REF_FRAME":"TEME","PERIOD":"95.591","MEAN_ANOMALY":"294.7528","ARG_OF_PERICENTER":"65.3646","BSTAR":"0.00108300000000","CENTER_NAME":"EARTH","ELEMENT_SET_NO":"999","MEAN_MOTION_DOT":"0.00015896","RCS_SIZE":"LARGE","TIME_SYSTEM":"UTC","CLASSIFICATION_TYPE":"U","REV_AT_EPOCH":"12088","EPHEMERIS_TYPE":"0","RA_OF_ASC_NODE":"204.0096","EPOCH":"2022-04-05T17:03:10.955808","MEAN_MOTION_DDOT":"0.0000000000000","TLE_LINE2":"2 45096  53.0523 204.0096 0001778  65.3646 294.7528 15.06422560120885","TLE_LINE1":"1 45096U 20006BE  22095.71054347  .00015896  00000-0  10830-2 0  9994","INCLINATION":"53.0523","MEAN_ELEMENT_THEORY":"SGP4","FILE":"3389912","COUNTRY_CODE":"US","APOAPSIS":"548.376","LAUNCH_DATE":"2020-01-29","PERIAPSIS":"545.913","NORAD_CAT_ID":"45096","OBJECT_TYPE":"PAYLOAD"},{"ECCENTRICITY":"0.00014090","SEMIMAJOR_AXIS":"6925.396","SITE":"AFETR","OBJECT_ID":"2020-006BG","DECAY_DATE":null,"OBJECT_NAME":"STARLINK-1184","MEAN_MOTION":"15.06384562","GP_ID":"200542222","REF_FRAME":"TEME","ARG_OF_PERICENTER":"70.6693","PERIOD":"95.593","MEAN_ANOMALY":"289.4448","BSTAR":"0.00012602000000","ELEMENT_SET_NO":"999","CENTER_NAME":"EARTH","MEAN_MOTION_DOT":"0.00001595","TIME_SYSTEM":"UTC","RCS_SIZE":"LARGE","REV_AT_EPOCH":"12090","EPHEMERIS_TYPE":"0","CLASSIFICATION_TYPE":"U","RA_OF_ASC_NODE":"203.4943","EPOCH":"2022-04-05T19:47:43.105344","TLE_LINE1":"1 45098U 20006BG  22095.82480446  .00001595  00000-0  12602-3 0  9992","TLE_LINE2":"2 45098  53.0531 203.4943 0001409  70.6693 289.4448 15.06384562120906","MEAN_MOTION_DDOT":"0.0000000000000","INCLINATION":"53.0531","MEAN_ELEMENT_THEORY":"SGP4","FILE":"3389912","COUNTRY_CODE":"US","APOAPSIS":"548.237","LAUNCH_DATE":"2020-01-29","PERIAPSIS":"546.285","NORAD_CAT_ID":"45098","OBJECT_TYPE":"PAYLOAD"},{"INCLINATION":"53.0553","TLE_LINE2":"2 45099  53.0553 203.6462 0001751  43.8299 316.2828 15.06407198120905","MEAN_MOTION_DDOT":"0.0000000000000","TLE_LINE1":"1 45099U 20006BH  22095.79163613  .00007343  00000-0  51127-3 0  9995","EPOCH":"2022-04-05T18:59:57.361632","RA_OF_ASC_NODE":"203.6462","OBJECT_TYPE":"PAYLOAD","NORAD_CAT_ID":"45099","LAUNCH_DATE":"2020-01-29","PERIAPSIS":"545.979","APOAPSIS":"548.404","COUNTRY_CODE":"US","MEAN_ELEMENT_THEORY":"SGP4","FILE":"3389912","ARG_OF_PERICENTER":"43.8299","PERIOD":"95.592","MEAN_ANOMALY":"316.2828","REF_FRAME":"TEME","GP_ID":"200541973","MEAN_MOTION":"15.06407198","OBJECT_NAME":"STARLINK-1186","DECAY_DATE":null,"OBJECT_ID":"2020-006BH","SEMIMAJOR_AXIS":"6925.326","SITE":"AFETR","ECCENTRICITY":"0.00017510","CLASSIFICATION_TYPE":"U","REV_AT_EPOCH":"12090","EPHEMERIS_TYPE":"0","RCS_SIZE":"LARGE","TIME_SYSTEM":"UTC","MEAN_MOTION_DOT":"0.00007343","CENTER_NAME":"EARTH","ELEMENT_SET_NO":"999","BSTAR":"0.00051127000000"},{"MEAN_MOTION":"15.06413628","GP_ID":"200541221","REF_FRAME":"TEME","PERIOD":"95.591","ARG_OF_PERICENTER":"58.2936","MEAN_ANOMALY":"301.8201","ECCENTRICITY":"0.00015170","OBJECT_ID":"2020-006BJ","SEMIMAJOR_AXIS":"6925.307","SITE":"AFETR","OBJECT_NAME":"STARLINK-1193","DECAY_DATE":null,"MEAN_MOTION_DOT":"0.00012392","RCS_SIZE":"LARGE","TIME_SYSTEM":"UTC","CLASSIFICATION_TYPE":"U","REV_AT_EPOCH":"12088","EPHEMERIS_TYPE":"0","BSTAR":"0.00084903000000","CENTER_NAME":"EARTH","ELEMENT_SET_NO":"999","TLE_LINE2":"2 45100  53.0549 204.0962 0001517  58.2936 301.8201 15.06413628120888","MEAN_MOTION_DDOT":"0.0000000000000","TLE_LINE1":"1 45100U 20006BJ  22095.68842764  .00012392  00000-0  84903-3 0  9995","INCLINATION":"53.0549","RA_OF_ASC_NODE":"204.0962","EPOCH":"2022-04-05T16:31:20.148096","PERIAPSIS":"546.121","LAUNCH_DATE":"2020-01-29","NORAD_CAT_ID":"45100","OBJECT_TYPE":"PAYLOAD","FILE":"3389912","MEAN_ELEMENT_THEORY":"SGP4","COUNTRY_CODE":"US","APOAPSIS":"548.222"},{"EPOCH":"2022-04-05T19:37:06.885120","RA_OF_ASC_NODE":"203.5070","INCLINATION":"53.0533","TLE_LINE2":"2 45101  53.0533 203.5070 0001502  61.2887 298.8252 15.06415935120906","TLE_LINE1":"1 45101U 20006BK  22095.81744080  .00009400  00000-0  64885-3 0  9996","MEAN_MOTION_DDOT":"0.0000000000000","COUNTRY_CODE":"US","MEAN_ELEMENT_THEORY":"SGP4","FILE":"3389912","APOAPSIS":"548.205","LAUNCH_DATE":"2020-01-29","PERIAPSIS":"546.125","OBJECT_TYPE":"PAYLOAD","NORAD_CAT_ID":"45101","SEMIMAJOR_AXIS":"6925.300","SITE":"AFETR","OBJECT_ID":"2020-006BK","ECCENTRICITY":"0.00015020","DECAY_DATE":null,"OBJECT_NAME":"STARLINK-1194","GP_ID":"200541471","MEAN_MOTION":"15.06415935","MEAN_ANOMALY":"298.8252","PERIOD":"95.591","ARG_OF_PERICENTER":"61.2887","REF_FRAME":"TEME","ELEMENT_SET_NO":"999","CENTER_NAME":"EARTH","BSTAR":"0.00064885000000","TIME_SYSTEM":"UTC","RCS_SIZE":"LARGE","MEAN_MOTION_DOT":"0.00009400","REV_AT_EPOCH":"12090","EPHEMERIS_TYPE":"0","CLASSIFICATION_TYPE":"U"},{"COUNTRY_CODE":"US","MEAN_ELEMENT_THEORY":"SGP4","FILE":"3389912","APOAPSIS":"548.368","LAUNCH_DATE":"2020-01-29","PERIAPSIS":"546.044","OBJECT_TYPE":"PAYLOAD","NORAD_CAT_ID":"45102","EPOCH":"2022-04-05T18:33:24.794496","RA_OF_ASC_NODE":"203.7287","INCLINATION":"53.0527","TLE_LINE2":"2 45102  53.0527 203.7287 0001678  64.1375 295.9787 15.06402361120898","MEAN_MOTION_DDOT":"0.0000000000000","TLE_LINE1":"1 45102U 20006BL  22095.77320364  .00006637  00000-0  46400-3 0  9999","ELEMENT_SET_NO":"999","CENTER_NAME":"EARTH","BSTAR":"0.00046400000000","TIME_SYSTEM":"UTC","RCS_SIZE":"LARGE","MEAN_MOTION_DOT":"0.00006637","REV_AT_EPOCH":"12089","EPHEMERIS_TYPE":"0","CLASSIFICATION_TYPE":"U","SEMIMAJOR_AXIS":"6925.341","SITE":"AFETR","OBJECT_ID":"2020-006BL","ECCENTRICITY":"0.00016780","DECAY_DATE":null,"OBJECT_NAME":"STARLINK-1195","GP_ID":"200541723","MEAN_MOTION":"15.06402361","MEAN_ANOMALY":"295.9787","PERIOD":"95.592","ARG_OF_PERICENTER":"64.1375","REF_FRAME":"TEME"},{"CLASSIFICATION_TYPE":"U","REV_AT_EPOCH":"12087","EPHEMERIS_TYPE":"0","RCS_SIZE":"LARGE","TIME_SYSTEM":"UTC","MEAN_MOTION_DOT":"-0.00006816","CENTER_NAME":"EARTH","ELEMENT_SET_NO":"999","BSTAR":"-0.00043924000000","PERIOD":"95.593","MEAN_ANOMALY":"290.8866","ARG_OF_PERICENTER":"69.2303","REF_FRAME":"TEME","GP_ID":"200542473","MEAN_MOTION":"15.06390923","OBJECT_NAME":"STARLINK-1196","DECAY_DATE":null,"OBJECT_ID":"2020-006BM","SEMIMAJOR_AXIS":"6925.376","SITE":"AFETR","ECCENTRICITY":"0.00016780","OBJECT_TYPE":"PAYLOAD","NORAD_CAT_ID":"45103","LAUNCH_DATE":"2020-01-29","PERIAPSIS":"546.079","APOAPSIS":"548.403","COUNTRY_CODE":"US","MEAN_ELEMENT_THEORY":"SGP4","FILE":"3389912","INCLINATION":"53.0488","TLE_LINE2":"2 45103  53.0488 204.5262 0001678  69.2303 290.8866 15.06390923120874","TLE_LINE1":"1 45103U 20006BM  22095.60625799 -.00006816  00000-0 -43924-3 0  9991","MEAN_MOTION_DDOT":"0.0000000000000","EPOCH":"2022-04-05T14:33:00.690336","RA_OF_ASC_NODE":"204.5262"},{"NORAD_CAT_ID":"45178","OBJECT_TYPE":"PAYLOAD","LAUNCH_DATE":"2020-02-17","PERIAPSIS":"546.232","APOAPSIS":"548.143","FILE":"3389912","MEAN_ELEMENT_THEORY":"SGP4","COUNTRY_CODE":"US","TLE_LINE2":"2 45178  53.0562   3.0406 0001380  77.6087 282.5056 15.06408436118676","MEAN_MOTION_DDOT":"0.0000000000000","TLE_LINE1":"1 45178U 20012A   22095.92432983  .00007547  00000-0  52488-3 0  9991","INCLINATION":"53.0562","RA_OF_ASC_NODE":"3.0406","EPOCH":"2022-04-05T22:11:02.097312","REV_AT_EPOCH":"11867","EPHEMERIS_TYPE":"0","CLASSIFICATION_TYPE":"U","MEAN_MOTION_DOT":"0.00007547","TIME_SYSTEM":"UTC","RCS_SIZE":"LARGE","BSTAR":"0.00052488000000","ELEMENT_SET_NO":"999","CENTER_NAME":"EARTH","REF_FRAME":"TEME","MEAN_ANOMALY":"282.5056","PERIOD":"95.592","ARG_OF_PERICENTER":"77.6087","MEAN_MOTION":"15.06408436","GP_ID":"200540979","DECAY_DATE":null,"OBJECT_NAME":"STARLINK-1138","ECCENTRICITY":"0.00013800","SITE":"AFETR","SEMIMAJOR_AXIS":"6925.323","OBJECT_ID":"2020-012A"}];
